0090P         2017 06 20.2117  2.962016  0.510553   29.0538   13.2047    9.6499  20220221   8.5  6.0  90P/Gehrels                                              MPC107051
0091P         2020 11 10.4444  2.604556  0.332426  355.2270  247.6027   14.0764  20220221   7.5  6.0  91P/Russell                                              MPEC 2021-S45
0092P         2027 07 12.8318  1.811323  0.661036  163.7785  181.3632   19.5045  20220221  12.0  6.0  92P/Sanguin                                              MPEC 2014-J58
0093P         2026 05  3.5235  1.695478  0.613039   74.8090  339.6471   12.2035  20220221   9.0  4.0  93P/Lovas                                                NK   2707
0094P         2023 05 21.2172  2.227066  0.365115   92.4462   70.8580    6.1881  20220221   9.0  6.0  94P/Russell                                              MPEC 2021-Y10
0095P         2046 10  2.0931  8.545315  0.376596  339.6098  209.2902    6.9245  20220221   6.5  2.0  95P/Chiron                                               MPC 75717
0096P         2023 01 31.1127  0.116396  0.961576   14.7491   93.9639   57.5177  20220221   9.0  4.0  96P/Machholz                                             MPEC 2017-T14
0097P         2022 02 15.5324  2.570210  0.459960  229.9653  184.0782   17.9521  20220221   5.5  6.0  97P/Metcalf-Brewington                                   MPEC 2022-C56
0098P         2021 01  4.7851  1.661713  0.562273  157.8452  114.6949   10.5601  20220221   9.0  8.0  98P/Takamizawa                                           MPEC 2021-W31
0099P         2022 04 12.6984  4.706106  0.229329  174.9386   28.1020    4.3395  20220221   4.5  6.0  99P/Kowal                                                MPEC 2022-CN4
0100P         2022 08 10.9712  2.017600  0.412242  181.9767   37.6892   25.5647  20220221   9.0  8.0  100P/Hartley                                             MPEC 2022-CN4
0101P         2020 01 12.7808  2.344414  0.596185  277.7207  116.2223    5.0521  20220221  10.0  4.8  101P/Chernykh                                            MPEC 2022-CN4
0102P         2021 01 22.5251  2.070494  0.457170   20.5844  339.3656   25.8845  20220221   6.5  8.0  102P/Shoemaker                                           MPEC 2022-C56
0103P         2023 10 12.6308  1.065211  0.693519  181.2851  219.7401   13.6067  20220221   8.5  8.0  103P/Hartley                                             MPEC 2018-HA5
0104P         2022 01 11.6248  1.073026  0.665205  227.2559  207.2161    5.7005  20220221  16.0  4.0  104P/Kowal                                               MPEC 2022-CN4
0105P         2025 01 23.0959  2.049290  0.409125   46.4763  192.4033    9.1691  20220221  11.5  6.0  105P/Singer Brewster                                     MPC109147
0106P         2021 08 18.7884  1.528729  0.593799  353.6812   48.8834   19.5359  20220221  14.0  4.8  106P/Schuster                                            MPEC 2022-CN4
0107P         2022 08 24.6683  0.966694  0.631703   95.4383  266.7792    2.7992  20220221   9.0  4.0  107P/Wilson-Harrington                                   MPEC 2015-M77
0108P         2021 09 10.1114  1.660315  0.555911  354.4318   50.2893   11.4362  20220221   8.0 12.0  108P/Ciffreo                                             MPEC 2022-CN4
0109P         1992 12  7.1267  0.975877  0.962705  152.9654  139.0767  113.9390  20220221   4.0  6.0  109P/Swift-Tuttle                                        105,  420
0110P         2021 10 18.3163  2.455729  0.318413  167.4485  287.5350   11.7060  20220221   1.0 12.0  110P/Hartley                                             MPEC 2022-CN4
0111P         2021 06 15.6670  3.707595  0.106400    0.9955   89.7637    4.2263  20220221   5.0  8.0  111P/Helin-Roman-Crockett                                MPC 75718
0112P         2020 02  8.1454  1.444839  0.590135   21.4723   31.8320   24.2038  20220221  14.0  6.0  112P/Urata-Niijima                                       MPEC 2021-S45
0113P         2022 06  1.4008  2.141714  0.419827  115.5011  306.6806    5.2901  20220221  13.5  4.0  113P/Spitaler                                            MPEC 2022-CN4
0114P         2020 01 14.0951  1.577358  0.554950  172.7536  271.0391   18.2776  20220221  11.5  6.0  114P/Wiseman-Skiff                                       MPEC 2021-S45
0115P         2020 07 29.5241  2.057341  0.518388  120.9848  176.0092   11.6774  20220221  10.5  6.0  115P/Maury                                               MPEC 2021-UA9
0116P         2022 07 16.9593  2.197004  0.370611  173.3040   20.9805    3.6034  20220221   2.5 10.0  116P/Wild                                                MPEC 2022-CN4
0117P         2022 07  7.6863  3.039682  0.255525  222.9227   58.8411    8.7038  20220221   2.5  8.0  117P/Helin-Roman-Alu                                     MPEC 2021-W31
0118P         2022 11 24.3487  1.829540  0.453787  314.7715  142.0961   10.0955  20220221  12.0  4.0  118P/Shoemaker-Levy                                      MPEC 2021-TD0
0119P         2022 08 11.8117  2.328052  0.388463  321.9872  104.5789    7.3932  20220221   3.5  8.0  119P/Parker-Hartley                                      MPEC 2022-CN4
0120P         2021 05  7.2817  2.478127  0.374704   36.6003  358.6720    8.4899  20220221  12.0  4.0  120P/Mueller                                             MPEC 2022-CN4
0121P         2023 06 27.8186  3.731447  0.185943   11.5055   94.1180   20.1642  20220221   6.5  8.0  121P/Shoemaker-Holt                                      MPEC 2021-Y10
0122P         1995 09  8.8347  0.664964  0.962270   12.9978   79.6004   85.1985  20220221   7.5  5.2  122P/de Vico                                             MPC 75718
0123P         2019 02  3.1554  2.150411  0.445454  104.0720   45.9927   15.2838  20220221  12.2  4.0  123P/West-Hartley                                        MPEC 2021-F20
0124P         2020 04 27.0497  1.658326  0.502171  184.4606    0.1715   31.6404  20220221  15.2  4.0  124P/Mrkos                                               MPEC 2021-F20
0125P         2024 03  7.2992  1.524806  0.512334   87.2255  153.1470    9.9866  20220221   9.0  4.0  125P/Spacewatch                                          MPEC 2015-M77
0126P         2023 07  5.2995  1.711517  0.696381  356.5586  357.8707   45.8754  20220221   9.0  4.0  126P/IRAS                                                MPC 66205
0127P         2022 08 10.6638  2.210746  0.360119    6.3515   13.6101   14.2981  20220221  11.0  6.0  127P/Holt-Olmstead                                       MPC 84321
0128P         2026 07 17.4820  3.048024  0.321228  210.2680  214.3090    4.3690  20220221   8.5  4.0  128P/Shoemaker-Holt                                      MPC 89014
0129P         2022 12  1.1686  3.924187  0.084366  307.5816  184.8704    3.4422  20220221  11.0  4.0  129P/Shoemaker-Levy                                      MPEC 2022-C56
0130P         2024 04 14.5567  1.822733  0.461306  246.0562   70.2042    6.0624  20220221  10.0  6.0  130P/McNaught-Hughes                                     MPC 78188
0131P         2019 01 24.8180  2.412950  0.344285  179.0334  214.1482    7.3581  20220221  11.0  4.0  131P/Mueller                                             MPC102101
0132P         2021 11 13.1191  1.691794  0.564596  216.3523  173.9973    5.3826  20220221  11.0  6.0  132P/Helin-Roman-Alu                                     MPEC 2022-CN4
0133P         2024 05  9.8359  2.669483  0.156665  131.8798  160.0995    1.3895  20220221  15.4  2.0  133P/Elst-Pizarro                                        MPC 94676
0134P         2014 05 16.4106  2.595861  0.585484   18.8795  202.0616    4.3368  20220221  11.5  4.0  134P/Kowal-Vavrova                                       MPC 89012
0135P         2022 04  7.3390  2.680098  0.294988   22.3206  213.0244    6.0630  20220221   7.0  8.0  135P/Shoemaker-Levy                                      MPEC 2021-F20
0136P         2025 01  2.2344  2.962929  0.293138  224.9718  137.4451    9.4243  20220221  11.0  4.0  136P/Mueller                                             MPEC 2020-W26
0137P         2018 12 14.1518  1.927142  0.573730  141.0813  232.9948    4.8552  20220221  11.0  4.0  137P/Shoemaker-Levy                                      MPEC 2021-N06
0138P         2019 05  3.2317  1.698823  0.530887   95.5455  309.3171   10.0904  20220221  15.0  6.0  138P/Shoemaker-Levy                                      MPEC 2016-U66
0139P         2017 12 10.3326  3.402951  0.247276  165.7187  242.1531    2.3350  20220221   9.5  4.0  139P/Vaisala-Oterma                                      MPEC 2020-HN5
0140P         2015 08  4.2924  1.977314  0.692187  172.8167  343.2445    3.8405  20220221  11.5  6.0  140P/Bowell-Skiff                                        MPEC 2015-E14
0141P         2020 12 16.3349  0.807622  0.735859  153.5655  241.8246   13.9473  20220221  14.7  4.0  141P/Machholz                                            MPEC 2021-AJ0
0142P         2021 05 12.6817  2.513214  0.497226  173.9685  175.9336   12.2515  20220221   8.5  6.0  142P/Ge-Wang                                             MPEC 2021-Y10
0143P         2018 05  4.8742  2.518512  0.411382  320.3365  245.1506    4.7019  20220221  13.5  2.0  143P/Kowal-Mrkos                                         MPEC 2021-W31
0144P         2024 01 25.6728  1.394040  0.635428  216.3427  243.1031    3.9326  20220221   8.5  8.0  144P/Kushida                                             MPC104795
0145P         2026 01 31.9757  1.895371  0.541888   10.2435   26.7913   11.2770  20220221  13.5  4.0  145P/Shoemaker-Levy                                      MPC108598
0146P         2024 08  5.4559  1.421777  0.647300  316.9798   53.3834   23.1073  20220221  15.0  4.0  146P/Shoemaker-LINEAR                                    MPC100284
0147P         2023 12  6.4921  3.133847  0.222136  348.4421   92.4103    2.3137  20220221  14.0  4.0  147P/Kushida-Muramatsu                                   MPC 75720
